[
    {
        "Altitude(m)": 705375.5434179837,
        "Argument of Periapsis(deg)": 0.009112096949301655,
        "Eccentricity": 0.0,
        "Inclination(deg)": 45.0,
        "Latitude(deg)": 36.12498250097844,
        "Longitude(deg)": -157.16157481511718,
        "Mean Anomaly(deg)": 123.77207331798466,
        "RAAN(deg)": 169.99139844683344,
        "Satellite Name": "Constellation 1 755",
        "Satellite Number": 755,
        "Semi-Major Axis(m)": 7083131.272910544,
        "Time(s)": 152
    },
    {
        "Altitude(m)": 705369.6886946396,
        "Argument of Periapsis(deg)": 0.009172044955547059,
        "Eccentricity": 0.0,
        "Inclination(deg)": 45.0,
        "Latitude(deg)": 36.09533540442921,
        "Longitude(deg)": -157.10015611489936,
        "Mean Anomaly(deg)": 123.8327744582345,
        "RAAN(deg)": 169.9913418576679,
        "Satellite Name": "Constellation 1 755",
        "Satellite Number": 755,
        "Semi-Major Axis(m)": 7083131.272910544,
        "Time(s)": 153
    },
    {
        "Altitude(m)": 705363.831068995,
        "Argument of Periapsis(deg)": 0.009231992961792466,
        "Eccentricity": 0.0,
        "Inclination(deg)": 45.0,
        "Latitude(deg)": 36.06565236552524,
        "Longitude(deg)": -157.03878661632734,
        "Mean Anomaly(deg)": 123.89347559848451,
        "RAAN(deg)": 169.9912852685023,
        "Satellite Name": "Constellation 1 755",
        "Satellite Number": 755,
        "Semi-Major Axis(m)": 7083131.272910544,
        "Time(s)": 154
    },
    {
        "Altitude(m)": 705357.9705779685,
        "Argument of Periapsis(deg)": 0.009291940968037872,
        "Eccentricity": 0.0,
        "Inclination(deg)": 45.0,
        "Latitude(deg)": 36.03593344949023,
        "Longitude(deg)": -156.97746628827232,
        "Mean Anomaly(deg)": 123.95417673873436,
        "RAAN(deg)": 169.99122867933676,
        "Satellite Name": "Constellation 1 755",
        "Satellite Number": 755,
        "Semi-Major Axis(m)": 7083131.272910544,
        "Time(s)": 155
    },
    {
        "Altitude(m)": 705352.1072585086,
        "Argument of Periapsis(deg)": 0.009351888974283276,
        "Eccentricity": 0.0,
        "Inclination(deg)": 45.0,
        "Latitude(deg)": 36.00617872149151,
        "Longitude(deg)": -156.91619526745532,
        "Mean Anomaly(deg)": 124.01487787898422,
        "RAAN(deg)": 169.99117209017115,
        "Satellite Name": "Constellation 1 755",
        "Satellite Number": 755,
        "Semi-Major Axis(m)": 7083131.272910544,
        "Time(s)": 156
    },
    {
        "Altitude(m)": 705346.2411475906,
        "Argument of Periapsis(deg)": 0.00941183698052868,
        "Eccentricity": 0.0,
        "Inclination(deg)": 45.0,
        "Latitude(deg)": 35.97638824663907,
        "Longitude(deg)": -156.85497318606122,
        "Mean Anomaly(deg)": 124.07557901923421,
        "RAAN(deg)": 169.9911155010056,
        "Satellite Name": "Constellation 1 755",
        "Satellite Number": 755,
        "Semi-Major Axis(m)": 7083131.272910544,
        "Time(s)": 157
    },
    {
        "Altitude(m)": 705340.3722822188,
        "Argument of Periapsis(deg)": 0.009471784986774088,
        "Eccentricity": 0.0,
        "Inclination(deg)": 45.0,
        "Latitude(deg)": 35.94656208998709,
        "Longitude(deg)": -156.79380018032222,
        "Mean Anomaly(deg)": 124.13628015948404,
        "RAAN(deg)": 169.99105891184004,
        "Satellite Name": "Constellation 1 755",
        "Satellite Number": 755,
        "Semi-Major Axis(m)": 7083131.272910544,
        "Time(s)": 158
    },
    {
        "Altitude(m)": 705334.5006994352,
        "Argument of Periapsis(deg)": 0.009531732993019492,
        "Eccentricity": 0.0,
        "Inclination(deg)": 45.0,
        "Latitude(deg)": 35.91670031653202,
        "Longitude(deg)": -156.73267621813036,
        "Mean Anomaly(deg)": 124.19698129973395,
        "RAAN(deg)": 169.99100232267446,
        "Satellite Name": "Constellation 1 755",
        "Satellite Number": 755,
        "Semi-Major Axis(m)": 7083131.272910544,
        "Time(s)": 159
    },
    {
        "Altitude(m)": 705328.6264363021,
        "Argument of Periapsis(deg)": 0.009591680999264898,
        "Eccentricity": 0.0,
        "Inclination(deg)": 45.0,
        "Latitude(deg)": 35.88680299121335,
        "Longitude(deg)": -156.67160126713662,
        "Mean Anomaly(deg)": 124.25768243998385,
        "RAAN(deg)": 169.9909457335089,
        "Satellite Name": "Constellation 1 755",
        "Satellite Number": 755,
        "Semi-Major Axis(m)": 7083131.272910544,
        "Time(s)": 160
    },
    {
        "Altitude(m)": 705322.7495299142,
        "Argument of Periapsis(deg)": 0.009651629005510304,
        "Eccentricity": 0.0,
        "Inclination(deg)": 45.0,
        "Latitude(deg)": 35.856870178912644,
        "Longitude(deg)": -156.61057529475167,
        "Mean Anomaly(deg)": 124.31838358023379,
        "RAAN(deg)": 169.99088914434336,
        "Satellite Name": "Constellation 1 755",
        "Satellite Number": 755,
        "Semi-Major Axis(m)": 7083131.272910544,
        "Time(s)": 161
    },
    {
        "Altitude(m)": 705316.8700173941,
        "Argument of Periapsis(deg)": 0.00971157701175571,
        "Eccentricity": 0.0,
        "Inclination(deg)": 45.0,
        "Latitude(deg)": 35.82690194445408,
        "Longitude(deg)": -156.549598268148,
        "Mean Anomaly(deg)": 124.37908472048369,
        "RAAN(deg)": 169.99083255517775,
        "Satellite Name": "Constellation 1 755",
        "Satellite Number": 755,
        "Semi-Major Axis(m)": 7083131.272910544,
        "Time(s)": 162
    },
    {
        "Altitude(m)": 705310.9879358943,
        "Argument of Periapsis(deg)": 0.009771525018001118,
        "Eccentricity": 0.0,
        "Inclination(deg)": 45.0,
        "Latitude(deg)": 35.79689835260369,
        "Longitude(deg)": -156.48867032235714,
        "Mean Anomaly(deg)": 124.43978586073352,
        "RAAN(deg)": 169.9907759660122,
        "Satellite Name": "Constellation 1 755",
        "Satellite Number": 755,
        "Semi-Major Axis(m)": 7083131.272910544,
        "Time(s)": 163
    },
    {
        "Altitude(m)": 705305.1033226011,
        "Argument of Periapsis(deg)": 0.00983147302424652,
        "Eccentricity": 0.0,
        "Inclination(deg)": 45.0,
        "Latitude(deg)": 35.76685946806847,
        "Longitude(deg)": -156.42779108788378,
        "Mean Anomaly(deg)": 124.50048700098348,
        "RAAN(deg)": 169.9907193768466,
        "Satellite Name": "Constellation 1 755",
        "Satellite Number": 755,
        "Semi-Major Axis(m)": 7083131.272910544,
        "Time(s)": 164
    },
    {
        "Altitude(m)": 705299.216214717,
        "Argument of Periapsis(deg)": 0.009891421030491928,
        "Eccentricity": 0.0,
        "Inclination(deg)": 45.0,
        "Latitude(deg)": 35.73678535549791,
        "Longitude(deg)": -156.366960699289,
        "Mean Anomaly(deg)": 124.56118814123337,
        "RAAN(deg)": 169.99066278768106,
        "Satellite Name": "Constellation 1 755",
        "Satellite Number": 755,
        "Semi-Major Axis(m)": 7083131.272910544,
        "Time(s)": 165
    },
    {
        "Altitude(m)": 705293.3266494826,
        "Argument of Periapsis(deg)": 0.009951369036737332,
        "Eccentricity": 0.0,
        "Inclination(deg)": 45.0,
        "Latitude(deg)": 35.706676079482236,
        "Longitude(deg)": -156.306179122803,
        "Mean Anomaly(deg)": 124.62188928148326,
        "RAAN(deg)": 169.99060619851548,
        "Satellite Name": "Constellation 1 755",
        "Satellite Number": 755,
        "Semi-Major Axis(m)": 7083131.272910544,
        "Time(s)": 166
    },
    {
        "Altitude(m)": 705287.4346641648,
        "Argument of Periapsis(deg)": 0.010011317042982738,
        "Eccentricity": 0.0,
        "Inclination(deg)": 45.0,
        "Latitude(deg)": 35.676531704552986,
        "Longitude(deg)": -156.24544632442442,
        "Mean Anomaly(deg)": 124.68259042173311,
        "RAAN(deg)": 169.9905496093499,
        "Satellite Name": "Constellation 1 755",
        "Satellite Number": 755,
        "Semi-Major Axis(m)": 7083131.272910544,
        "Time(s)": 167
    },
    {
        "Altitude(m)": 705281.5402960579,
        "Argument of Periapsis(deg)": 0.010071265049228144,
        "Eccentricity": 0.0,
        "Inclination(deg)": 45.0,
        "Latitude(deg)": 35.64635229518218,
        "Longitude(deg)": -156.18476226992038,
        "Mean Anomaly(deg)": 124.74329156198307,
        "RAAN(deg)": 169.99049302018432,
        "Satellite Name": "Constellation 1 755",
        "Satellite Number": 755,
        "Semi-Major Axis(m)": 7083131.272910544,
        "Time(s)": 168
    },
    {
        "Altitude(m)": 705275.6435824774,
        "Argument of Periapsis(deg)": 0.01013121305547355,
        "Eccentricity": 0.0,
        "Inclination(deg)": 45.0,
        "Latitude(deg)": 35.616137915782694,
        "Longitude(deg)": -156.12412692482894,
        "Mean Anomaly(deg)": 124.80399270223295,
        "RAAN(deg)": 169.99043643101876,
        "Satellite Name": "Constellation 1 755",
        "Satellite Number": 755,
        "Semi-Major Axis(m)": 7083131.272910544,
        "Time(s)": 169
    },
    {
        "Altitude(m)": 705269.7445607774,
        "Argument of Periapsis(deg)": 0.010191161061718957,
        "Eccentricity": 0.0,
        "Inclination(deg)": 45.0,
        "Latitude(deg)": 35.58588863070752,
        "Longitude(deg)": -156.06354025445958,
        "Mean Anomaly(deg)": 124.86469384248285,
        "RAAN(deg)": 169.9903798418532,
        "Satellite Name": "Constellation 1 755",
        "Satellite Number": 755,
        "Semi-Major Axis(m)": 7083131.272910544,
        "Time(s)": 170
    }
]